[{"OBJECT_NAME":"STARLINK-1284","OBJECT_ID":"2020-019AG","EPOCH":"2025-09-26T22:37:00.363648","MEAN_MOTION":15.06383643,"ECCENTRICITY":0.00014824,"INCLINATION":53.0537,"RA_OF_ASC_NODE":161.7149,"ARG_OF_PERICENTER":119.2981,"MEAN_ANOMALY":240.8157,"EPHEMERIS_TYPE":0,"CLASSIFICATION_TYPE":"U","NORAD_CAT_ID":45390,"ELEMENT_SET_NO":999,"REV_AT_EPOCH":30532,"BSTAR":0.00012659311,"MEAN_MOTION_DOT":1.604e-5,"MEAN_MOTION_DDOT":0},{"OBJECT_NAME":"STARLINK-1292","OBJECT_ID":"2020-019AL","EPOCH":"2025-09-27T00:00:02.000160","MEAN_MOTION":15.74971785,"ECCENTRICITY":0.00047886,"INCLINATION":53.0488,"RA_OF_ASC_NODE":130.8697,"ARG_OF_PERICENTER":169.1282,"MEAN_ANOMALY":122.6165,"EPHEMERIS_TYPE":0,"CLASSIFICATION_TYPE":"U","NORAD_CAT_ID":45394,"ELEMENT_SET_NO":999,"REV_AT_EPOCH":572,"BSTAR":0.0010699842,"MEAN_MOTION_DOT":0.00164772,"MEAN_MOTION_DDOT":0},{"OBJECT_NAME":"STARLINK-1297","OBJECT_ID":"2020-019AM","EPOCH":"2025-09-26T10:45:45.635904","MEAN_MOTION":15.06394975,"ECCENTRICITY":0.00010402,"INCLINATION":53.0526,"RA_OF_ASC_NODE":163.9277,"ARG_OF_PERICENTER":69.8904,"MEAN_ANOMALY":290.2197,"EPHEMERIS_TYPE":0,"CLASSIFICATION_TYPE":"U","NORAD_CAT_ID":45395,"ELEMENT_SET_NO":999,"REV_AT_EPOCH":30443,"BSTAR":0.00058390668,"MEAN_MOTION_DOT":8.425e-5,"MEAN_MOTION_DDOT":0},{"OBJECT_NAME":"STARLINK-1307","OBJECT_ID":"2020-019AP","EPOCH":"2025-09-26T16:57:17.202240","MEAN_MOTION":15.06396277,"ECCENTRICITY":0.00015399,"INCLINATION":53.0526,"RA_OF_ASC_NODE":162.7681,"ARG_OF_PERICENTER":86.6169,"MEAN_ANOMALY":273.4996,"EPHEMERIS_TYPE":0,"CLASSIFICATION_TYPE":"U","NORAD_CAT_ID":45397,"ELEMENT_SET_NO":999,"REV_AT_EPOCH":30511,"BSTAR":-0.00088513894,"MEAN_MOTION_DOT":-0.0001344,"MEAN_MOTION_DDOT":0},{"OBJECT_NAME":"STARLINK-1312","OBJECT_ID":"2020-019AQ","EPOCH":"2025-09-27T00:00:02.000160","MEAN_MOTION":15.73329682,"ECCENTRICITY":0.00095393,"INCLINATION":53.0472,"RA_OF_ASC_NODE":130.3733,"ARG_OF_PERICENTER":111.307,"MEAN_ANOMALY":1.4698,"EPHEMERIS_TYPE":0,"CLASSIFICATION_TYPE":"U","NORAD_CAT_ID":45398,"ELEMENT_SET_NO":999,"REV_AT_EPOCH":596,"BSTAR":0.0015437155,"MEAN_MOTION_DOT":0.00223649,"MEAN_MOTION_DDOT":0},{"OBJECT_NAME":"STARLINK-1255","OBJECT_ID":"2020-019AR","EPOCH":"2025-09-26T22:33:01.635264","MEAN_MOTION":15.06386161,"ECCENTRICITY":0.00012171,"INCLINATION":53.0522,"RA_OF_ASC_NODE":151.7229,"ARG_OF_PERICENTER":85.6647,"MEAN_ANOMALY":274.4481,"EPHEMERIS_TYPE":0,"CLASSIFICATION_TYPE":"U","NORAD_CAT_ID":45399,"ELEMENT_SET_NO":999,"REV_AT_EPOCH":30527,"BSTAR":4.9924106e-5,"MEAN_MOTION_DOT":4.62e-6,"MEAN_MOTION_DDOT":0},{"OBJECT_NAME":"STARLINK-1259","OBJECT_ID":"2020-019AV","EPOCH":"2025-09-27T00:00:02.000160","MEAN_MOTION":15.85998479,"ECCENTRICITY":0.00064728,"INCLINATION":53.0459,"RA_OF_ASC_NODE":111.8595,"ARG_OF_PERICENTER":106.6041,"MEAN_ANOMALY":294.7202,"EPHEMERIS_TYPE":0,"CLASSIFICATION_TYPE":"U","NORAD_CAT_ID":45403,"ELEMENT_SET_NO":999,"REV_AT_EPOCH":595,"BSTAR":0.0014307529,"MEAN_MOTION_DOT":0.00375326,"MEAN_MOTION_DDOT":0},{"OBJECT_NAME":"STARLINK-1260","OBJECT_ID":"2020-019AW","EPOCH":"2025-09-26T16:58:38.189280","MEAN_MOTION":15.06399131,"ECCENTRICITY":0.00022087,"INCLINATION":53.0515,"RA_OF_ASC_NODE":152.766,"ARG_OF_PERICENTER":88.3016,"MEAN_ANOMALY":271.8226,"EPHEMERIS_TYPE":0,"CLASSIFICATION_TYPE":"U","NORAD_CAT_ID":45404,"ELEMENT_SET_NO":999,"REV_AT_EPOCH":30514,"BSTAR":0.00021648735,"MEAN_MOTION_DOT":2.944e-5,"MEAN_MOTION_DDOT":0},{"OBJECT_NAME":"STARLINK-1263","OBJECT_ID":"2020-019AX","EPOCH":"2025-09-26T21:24:01.128672","MEAN_MOTION":15.06399218,"ECCENTRICITY":0.00017168,"INCLINATION":53.0535,"RA_OF_ASC_NODE":151.9331,"ARG_OF_PERICENTER":124.4194,"MEAN_ANOMALY":235.6958,"EPHEMERIS_TYPE":0,"CLASSIFICATION_TYPE":"U","NORAD_CAT_ID":45405,"ELEMENT_SET_NO":999,"REV_AT_EPOCH":30517,"BSTAR":0.00030398737,"MEAN_MOTION_DOT":4.249e-5,"MEAN_MOTION_DDOT":0},{"OBJECT_NAME":"STARLINK-1265","OBJECT_ID":"2020-019AY","EPOCH":"2025-09-26T21:34:38.594784","MEAN_MOTION":15.06394412,"ECCENTRICITY":0.00012737,"INCLINATION":53.0533,"RA_OF_ASC_NODE":151.9047,"ARG_OF_PERICENTER":101.7369,"MEAN_ANOMALY":258.3763,"EPHEMERIS_TYPE":0,"CLASSIFICATION_TYPE":"U","NORAD_CAT_ID":45406,"ELEMENT_SET_NO":999,"REV_AT_EPOCH":30517,"BSTAR":0.00019958771,"MEAN_MOTION_DOT":2.692e-5,"MEAN_MOTION_DDOT":0},{"OBJECT_NAME":"STARLINK-1278","OBJECT_ID":"2020-019BA","EPOCH":"2025-09-26T22:13:07.358304","MEAN_MOTION":15.06382721,"ECCENTRICITY":0.00018377,"INCLINATION":53.0555,"RA_OF_ASC_NODE":181.7955,"ARG_OF_PERICENTER":121.5382,"MEAN_ANOMALY":238.5787,"EPHEMERIS_TYPE":0,"CLASSIFICATION_TYPE":"U","NORAD_CAT_ID":45408,"ELEMENT_SET_NO":999,"REV_AT_EPOCH":30476,"BSTAR":0.00016170129,"MEAN_MOTION_DOT":2.127e-5,"MEAN_MOTION_DDOT":0},{"OBJECT_NAME":"STARLINK-1296","OBJECT_ID":"2020-019BE","EPOCH":"2025-09-26T08:55:37.724160","MEAN_MOTION":15.06398802,"ECCENTRICITY":0.00014819,"INCLINATION":53.0531,"RA_OF_ASC_NODE":154.2695,"ARG_OF_PERICENTER":58.7914,"MEAN_ANOMALY":301.322,"EPHEMERIS_TYPE":0,"CLASSIFICATION_TYPE":"U","NORAD_CAT_ID":45412,"ELEMENT_SET_NO":999,"REV_AT_EPOCH":30509,"BSTAR":0.00047826569,"MEAN_MOTION_DOT":6.849e-5,"MEAN_MOTION_DDOT":0},{"OBJECT_NAME":"STARLINK-1298","OBJECT_ID":"2020-019BF","EPOCH":"2025-09-26T15:35:39.132672","MEAN_MOTION":15.43465035,"ECCENTRICITY":0.00103806,"INCLINATION":53.0495,"RA_OF_ASC_NODE":139.4685,"ARG_OF_PERICENTER":116.1433,"MEAN_ANOMALY":244.0641,"EPHEMERIS_TYPE":0,"CLASSIFICATION_TYPE":"U","NORAD_CAT_ID":45413,"ELEMENT_SET_NO":999,"REV_AT_EPOCH":30542,"BSTAR":0.0016157674,"MEAN_MOTION_DOT":0.00073889,"MEAN_MOTION_DDOT":0},{"OBJECT_NAME":"STARLINK-1309","OBJECT_ID":"2020-019BG","EPOCH":"2025-09-26T22:01:11.095392","MEAN_MOTION":15.06384986,"ECCENTRICITY":0.00020995,"INCLINATION":53.0554,"RA_OF_ASC_NODE":151.8279,"ARG_OF_PERICENTER":106.5689,"MEAN_ANOMALY":253.553,"EPHEMERIS_TYPE":0,"CLASSIFICATION_TYPE":"U","NORAD_CAT_ID":45414,"ELEMENT_SET_NO":999,"REV_AT_EPOCH":30516,"BSTAR":-0.00031722282,"MEAN_MOTION_DOT":-5.002e-5,"MEAN_MOTION_DDOT":0},{"OBJECT_NAME":"STARLINK-1316","OBJECT_ID":"2020-019BH","EPOCH":"2025-09-26T22:38:20.186880","MEAN_MOTION":15.06386081,"ECCENTRICITY":0.00015702,"INCLINATION":53.0557,"RA_OF_ASC_NODE":151.7013,"ARG_OF_PERICENTER":101.2136,"MEAN_ANOMALY":258.903,"EPHEMERIS_TYPE":0,"CLASSIFICATION_TYPE":"U","NORAD_CAT_ID":45415,"ELEMENT_SET_NO":999,"REV_AT_EPOCH":30520,"BSTAR":-7.7198986e-5,"MEAN_MOTION_DOT":-1.431e-5,"MEAN_MOTION_DDOT":0},{"OBJECT_NAME":"STARLINK-1318","OBJECT_ID":"2020-019BJ","EPOCH":"2025-09-26T14:31:02.653248","MEAN_MOTION":15.56086371,"ECCENTRICITY":6.758e-5,"INCLINATION":53.0526,"RA_OF_ASC_NODE":133.7399,"ARG_OF_PERICENTER":169.0314,"MEAN_ANOMALY":191.0711,"EPHEMERIS_TYPE":0,"CLASSIFICATION_TYPE":"U","NORAD_CAT_ID":45416,"ELEMENT_SET_NO":999,"REV_AT_EPOCH":30541,"BSTAR":0.00073321807,"MEAN_MOTION_DOT":0.00051943,"MEAN_MOTION_DDOT":0}]
