STARLINK-1284           
1 45390U 20019AG  25269.94236532  .00001604  00000+0  12659-3 0  9997
2 45390  53.0537 161.7149 0001482 119.2981 240.8157 15.06383643305320
STARLINK-1292           
1 45394U 20019AL  25270.00002315  .00164772  00000+0  10700-2 0  9990
2 45394  53.0488 130.8697 0004788 169.1282 122.6165 15.74971785  5726
STARLINK-1297           
1 45395U 20019AM  25269.44844486  .00008425  00000+0  58391-3 0  9991
2 45395  53.0526 163.9277 0001040  69.8904 290.2197 15.06394975304438
STARLINK-1307           
1 45397U 20019AP  25269.70644910 -.00013440  00000+0 -88514-3 0  9997
2 45397  53.0526 162.7681 0001539  86.6169 273.4996 15.06396277305112
STARLINK-1312           
1 45398U 20019AQ  25270.00002315  .00223649  00000+0  15437-2 0  9995
2 45398  53.0472 130.3733 0009539 111.3070   1.4698 15.73329682  5965
STARLINK-1255           
1 45399U 20019AR  25269.93960226  .00000462  00000+0  49924-4 0  9996
2 45399  53.0522 151.7229 0001217  85.6647 274.4481 15.06386161305277
STARLINK-1259           
1 45403U 20019AV  25270.00002315  .00375326  00000+0  14308-2 0  9998
2 45403  53.0459 111.8595 0006472 106.6041 294.7202 15.85998479  5951
STARLINK-1260           
1 45404U 20019AW  25269.70738645  .00002944  00000+0  21649-3 0  9996
2 45404  53.0515 152.7660 0002208  88.3016 271.8226 15.06399131305142
STARLINK-1263           
1 45405U 20019AX  25269.89167973  .00004249  00000+0  30399-3 0  9999
2 45405  53.0535 151.9331 0001716 124.4194 235.6958 15.06399218305172
STARLINK-1265           
1 45406U 20019AY  25269.89905781  .00002692  00000+0  19959-3 0  9996
2 45406  53.0533 151.9047 0001273 101.7369 258.3763 15.06394412305172
STARLINK-1278           
1 45408U 20019BA  25269.92577961  .00002127  00000+0  16170-3 0  9992
2 45408  53.0555 181.7955 0001837 121.5382 238.5787 15.06382721304768
STARLINK-1296           
1 45412U 20019BE  25269.37196440  .00006849  00000+0  47827-3 0  9993
2 45412  53.0531 154.2695 0001481  58.7914 301.3220 15.06398802305095
STARLINK-1298           
1 45413U 20019BF  25269.64975848  .00073889  00000+0  16158-2 0  9991
2 45413  53.0495 139.4685 0010380 116.1433 244.0641 15.43465035305423
STARLINK-1309           
1 45414U 20019BG  25269.91748953 -.00005002  00000+0 -31722-3 0  9996
2 45414  53.0554 151.8279 0002099 106.5689 253.5530 15.06384986305168
STARLINK-1316           
1 45415U 20019BH  25269.94328920 -.00001431  00000+0 -77199-4 0  9999
2 45415  53.0557 151.7013 0001570 101.2136 258.9030 15.06386081305206
STARLINK-1318           
1 45416U 20019BJ  25269.60489182  .00051943  00000+0  73322-3 0  9995
2 45416  53.0526 133.7399 0000675 169.0314 191.0711 15.56086371305415
